     2.11           N: GPS NAV DATA                         RINEX VERSION / TYPE
teqc  2018Dec12     gpsops              20220626 00:07:48UTCPGM / RUN BY / DATE
Linux 2.6.32-573.12.1.x86_64|x86_64|gcc -static|Linux 64|=+ COMMENT
CRO1                                    MARKER NAME         COMMENT
43201M001                               MARKER NUMBER       COMMENT
2607771.4940 -5488076.9970 1932768.0602                     COMMENT
This data is provided as a public service by NASA/JPL.      COMMENT
No warranty is expressed or implied regarding suitability   COMMENT
for use.  For further information, contact:                 COMMENT
ggnops at jpl dot nasa dot gov                              COMMENT
                                                            END OF HEADER
22 22  6 25  5 59 44.0 2.815127372742D-04 6.366462912410D-12 0.000000000000D+00
    3.000000000000D+00-2.718750000000D+00 4.903418532778D-09-1.757624291238D+00
    1.285225152969D-07 1.342969364487D-02 5.256384611130D-06 5.153699157715D+03
    5.399840000000D+05 2.179294824600D-07-2.003314997014D+00 1.471489667892D-07
    9.612316182181D-01 2.738125000000D+02-1.846671179918D+00-7.994618722245D-09
    1.917937032633D-10 1.000000000000D+00 2.215000000000D+03 0.000000000000D+00
    2.000000000000D+00 0.000000000000D+00-8.381903171539D-09 3.000000000000D+00
    5.328180000000D+05 4.000000000000D+00
23 22  6 25  6  0  0.0-2.982048317790D-05-1.932676241267D-12 0.000000000000D+00
    2.280000000000D+02-3.087500000000D+01 4.125171829965D-09 1.735726955995D+00
   -1.724809408188D-06 2.276127343066D-03 9.639188647270D-06 5.153716032028D+03
    5.400000000000D+05 1.676380634308D-08 3.122110369343D+00 3.352761268616D-08
    9.695165636393D-01 1.974062500000D+02 2.989591389464D+00-7.709964008091D-09
    4.960920927984D-10 1.000000000000D+00 2.215000000000D+03 0.000000000000D+00
    2.000000000000D+00 0.000000000000D+00-8.381903171539D-09 4.840000000000D+02
    5.328180000000D+05 4.000000000000D+00
12 22  6 25  6  0  0.0-2.364311367273D-04-5.911715561524D-12 0.000000000000D+00
    5.200000000000D+01 1.142187500000D+02 4.287321441290D-09 1.175027333451D+00
    5.746260285378D-06 8.577499771491D-03 7.919967174530D-06 5.153782699585D+03
    5.400000000000D+05-1.713633537292D-07 7.946806390098D-02-5.029141902924D-08
    9.692655795619D-01 2.329375000000D+02 1.309106332596D+00-8.042120700893D-09
   -1.250052069686D-11 1.000000000000D+00 2.215000000000D+03 0.000000000000D+00
    2.000000000000D+00 0.000000000000D+00-1.257285475731D-08 5.200000000000D+01
    5.328180000000D+05 4.000000000000D+00
29 22  6 25  5 59 44.0-5.273935385048D-04-3.751665644813D-12 0.000000000000D+00
    3.600000000000D+01 5.812500000000D+00 4.262320399896D-09-1.545036671310D+00
    2.607703208923D-07 2.242897986434D-03 1.836568117142D-06 5.153685150146D+03
    5.399840000000D+05-3.166496753693D-08 1.130760150665D+00 4.656612873077D-08
    9.804462937864D-01 3.540312500000D+02 2.321259408126D+00-8.226056934004D-09
   -9.428964182777D-11 1.000000000000D+00 2.215000000000D+03 0.000000000000D+00
    2.000000000000D+00 0.000000000000D+00-1.024454832077D-08 3.600000000000D+01
    5.337180000000D+05 4.000000000000D+00
16 22  6 25  6  0  0.0-5.113119259477D-04-2.501110429876D-12 0.000000000000D+00
    9.900000000000D+01 1.021250000000D+02 4.285178494885D-09-6.554718956755D-01
    5.368143320084D-06 1.269079197664D-02 7.504597306252D-06 5.153674922943D+03
    5.400000000000D+05 8.195638656616D-08 9.799413368901D-02 2.272427082062D-07
    9.691441207884D-01 2.390937500000D+02 7.309586207091D-01-8.071407635097D-09
   -7.393165097859D-11 1.000000000000D+00 2.215000000000D+03 0.000000000000D+00
    2.000000000000D+00 0.000000000000D+00-1.024454832077D-08 9.900000000000D+01
    5.339280000000D+05 4.000000000000D+00
 3 22  6 25  5 59 44.0-2.889768220484D-04-1.125499693444D-11 0.000000000000D+00
    5.000000000000D+00-1.984375000000D+01 4.005523989009D-09 1.358099448830D+00
   -1.108273863792D-06 4.323974600993D-03 9.654089808464D-06 5.153605203629D+03
    5.399840000000D+05-8.381903171539D-08-3.132831598554D+00 9.313225746155D-09
    9.746317869031D-01 1.980312500000D+02 9.826410322461D-01-7.768895034233D-09
    4.846630453041D-10 1.000000000000D+00 2.215000000000D+03 0.000000000000D+00
    2.000000000000D+00 0.000000000000D+00 1.862645149231D-09 5.000000000000D+00
    5.375880000000D+05 4.000000000000D+00
31 22  6 25  5 59 44.0-1.831771805882D-04-1.591615728103D-12 0.000000000000D+00
    0.000000000000D+00 2.812500000000D-01 4.818772149774D-09 1.316402479984D+00
    3.296881914139D-07 1.043799787294D-02 9.641051292419D-06 5.153762174606D+03
    5.399840000000D+05-3.539025783539D-08-1.014996236336D+00 1.452863216400D-07
    9.546502847877D-01 1.912187500000D+02 3.984155233315D-01-8.099980253833D-09
   -5.903817346261D-10 1.000000000000D+00 2.215000000000D+03 0.000000000000D+00
    2.000000000000D+00 0.000000000000D+00-1.350417733192D-08 0.000000000000D+00
    5.392260000000D+05 4.000000000000D+00
27 22  6 25  6  0  0.0 2.180202864110D-04 2.387423592154D-12 0.000000000000D+00
    8.200000000000D+01 1.918750000000D+01 4.283392706214D-09-1.589625592207D+00
    1.076608896255D-06 1.052600983530D-02 1.681968569756D-06 5.153658094406D+03
    5.400000000000D+05 1.881271600723D-07 1.054066908815D+00-1.601874828339D-07
    9.719032691351D-01 3.537812500000D+02 6.898798517849D-01-8.107837723985D-09
   -3.392998474863D-11 1.000000000000D+00 2.215000000000D+03 0.000000000000D+00
    2.000000000000D+00 0.000000000000D+00 1.862645149231D-09 8.200000000000D+01
    5.395080000000D+05 4.000000000000D+00
26 22  6 25  5 59 44.0 2.144463360310D-04 2.273736754432D-12 0.000000000000D+00
    6.000000000000D+00 9.228125000000D+01 5.022709216000D-09 2.081164478111D-01
    4.865229129791D-06 6.950019160286D-03 8.208677172661D-06 5.153774381638D+03
    5.399840000000D+05 2.048909664154D-08-4.815978250539D-02 5.215406417847D-08
    9.375585169384D-01 2.040312500000D+02 3.877305569340D-01-8.333918569731D-09
   -1.500062483624D-10 1.000000000000D+00 2.215000000000D+03 0.000000000000D+00
    2.000000000000D+00 0.000000000000D+00 6.984919309616D-09 6.000000000000D+00
    5.395680000000D+05 4.000000000000D+00
26 22  6 25  7 59 44.0 2.144626341760D-04 2.273736754432D-12 0.000000000000D+00
    7.000000000000D+00 1.052812500000D+02 5.025566477873D-09 1.258015902395D+00
    5.729496479034D-06 6.951745250262D-03 8.868053555489D-06 5.153778778076D+03
    5.471840000000D+05 6.332993507385D-08-4.822012495033D-02 9.872019290924D-08
    9.375575119136D-01 1.938125000000D+02 3.879529102416D-01-8.353205087378D-09
   -9.857553463812D-11 1.000000000000D+00 2.215000000000D+03 0.000000000000D+00
    2.000000000000D+00 0.000000000000D+00 6.984919309616D-09 7.000000000000D+00
    5.400180000000D+05 4.000000000000D+00
22 22  6 25  8  0  0.0 2.815583720803D-04 6.366462912410D-12 0.000000000000D+00
    4.000000000000D+00-2.218750000000D+00 4.970921344541D-09-7.051668629503D-01
    9.313225746155D-08 1.342954812571D-02 6.029382348061D-06 5.153697971344D+03
    5.472000000000D+05-1.136213541031D-07-2.003373949686D+00 1.862645149231D-07
    9.612314894813D-01 2.694687500000D+02-1.846626056210D+00-8.321775206769D-09
    1.864363372504D-10 1.000000000000D+00 2.215000000000D+03 0.000000000000D+00
    2.000000000000D+00 0.000000000000D+00-8.381903171539D-09 4.000000000000D+00
    5.400180000000D+05 4.000000000000D+00
16 22  6 25  8  0  0.0-5.113305523992D-04-2.501110429876D-12 0.000000000000D+00
    1.000000000000D+02 1.064062500000D+02 4.396968865688D-09 3.946694655788D-01
    5.805864930153D-06 1.269107032567D-02 7.720664143562D-06 5.153675321579D+03
    5.472000000000D+05-2.607703208923D-08 9.793523807005D-02 1.136213541031D-07
    9.691433044801D-01 2.325625000000D+02 7.309969330707D-01-8.174269062546D-09
   -5.393081786361D-11 1.000000000000D+00 2.215000000000D+03 0.000000000000D+00
    2.800000000000D+00 0.000000000000D+00-1.024454832077D-08 1.000000000000D+02
    5.400180000000D+05 4.000000000000D+00
32 22  6 25  8  0  0.0-1.598289236426D-04-9.549694368616D-12 0.000000000000D+00
    3.300000000000D+01-1.000000000000D+00 4.965921136262D-09 1.370625167011D-01
   -1.247972249985D-07 6.029098527506D-03 5.882233381271D-06 5.153604675293D+03
    5.472000000000D+05-2.793967723846D-08-2.094018055251D+00 1.229345798492D-07
    9.580783348711D-01 2.684062500000D+02-2.279118727449D+00-8.205698943155D-09
    2.053656971627D-10 1.000000000000D+00 2.215000000000D+03 0.000000000000D+00
    2.000000000000D+00 0.000000000000D+00 4.656612873077D-10 3.300000000000D+01
    5.400180000000D+05 4.000000000000D+00
31 22  6 25  7 59 44.0-1.831883564591D-04-1.591615728103D-12 0.000000000000D+00
    1.400000000000D+01 3.031250000000D+00 4.766269962847D-09 2.366538157802D+00
    1.955777406693D-07 1.043847063556D-02 9.976327419281D-06 5.153761800766D+03
    5.471840000000D+05-2.831220626831D-07-1.015055180231D+00-7.823109626770D-08
    9.546474072278D-01 1.852187500000D+02 3.984089870135D-01-7.881399720505D-09
   -3.989451890970D-10 1.000000000000D+00 2.215000000000D+03 0.000000000000D+00
    2.000000000000D+00 0.000000000000D+00-1.350417733192D-08 1.400000000000D+01
    5.400180000000D+05 4.000000000000D+00
 3 22  6 25  8  0  0.0-2.890578471124D-04-1.125499693444D-11 0.000000000000D+00
    6.000000000000D+00-2.518750000000D+01 3.853374794242D-09 2.410491669008D+00
   -1.288950443268D-06 4.323994973674D-03 9.680166840553D-06 5.153606426239D+03
    5.472000000000D+05 2.607703208923D-08-3.132887366454D+00-1.154839992523D-07
    9.746361756574D-01 2.002500000000D+02 9.828006453860D-01-7.604959634237D-09
    5.246647115340D-10 1.000000000000D+00 2.215000000000D+03 0.000000000000D+00
    2.000000000000D+00 0.000000000000D+00 1.862645149231D-09 6.000000000000D+00
    5.400180000000D+05 4.000000000000D+00
